{
  "norad_id": 68577,
  "name": "KUIPER-00194",
  "history": [
    {
      "epoch": "2026-04-09T12:00:55.099872Z",
      "apogee_km": 453.8095612581037,
      "perigee_km": 449.64197899577175,
      "latitude_deg": 6.809744259872885e-05,
      "longitude_deg": 131.08743582204738,
      "height_km": 452.736904002275,
      "semi_major_axis_km": 6829.862770126937,
      "eccentricity": 0.0003051,
      "inclination_deg": 51.8755,
      "raan_deg": 149.0649,
      "arg_perigee_deg": 96.945,
      "mean_anomaly_deg": 263.1885,
      "mean_motion_rev_day": 15.38100791
    },
    {
      "epoch": "2026-04-09T12:00:55.100736Z",
      "apogee_km": 453.8096265955255,
      "perigee_km": 449.6419077377459,
      "latitude_deg": 6.719690243748151e-05,
      "longitude_deg": 131.08743150937715,
      "height_km": 452.736909300277,
      "semi_major_axis_km": 6829.862767166635,
      "eccentricity": 0.00030511,
      "inclination_deg": 51.8755,
      "raan_deg": 149.0649,
      "arg_perigee_deg": 96.945,
      "mean_anomaly_deg": 263.1885,
      "mean_motion_rev_day": 15.38100792
    }
  ]
}